HTV-X1                  
1 66174U 25241A   26086.19224939  .00002554  00000+0  92026-4 0  9997
2 66174  51.6383 348.7349 0007369 239.1193 120.9064 15.32420642 23627
SZ-21 MODULE            
1 66515U 25246C   26086.06581700  .00040530  00000+0  33003-3 0  9994
2 66515  41.4743  96.2882 0001339 209.1710 150.9058 15.69868373 20803
SHENZHOU-22             
1 66645U 25272A   26085.98832941  .00022978  00000+0  26344-3 0  9999
2 66645  41.4668 102.8341 0004228  32.9818 327.1284 15.61535723280425
SOYUZ-MS 28             
1 66664U 25275A   26086.13218663  .00012923  00000+0  24583-3 0  9992
2 66664  51.6343 346.1324 0006239 237.1062 122.9326 15.48575012559097
DUPLEX                  
1 66906U 98067XS  26085.98244278  .00043353  00000+0  58535-3 0  9998
2 66906  51.6310 342.8841 0003273 185.9193 174.1760 15.57326694 17828
ISS OBJECT XT           
1 66907U 98067XT  26086.06187320  .00219962  00000+0  13800-2 0  9999
2 66907  51.6250 336.6305 0005739 192.2616 167.8244 15.75548676 17910
ISS OBJECT XU           
1 66908U 98067XU  26086.05835701  .00230149  00000+0  14272-2 0  9996
2 66908  51.6238 336.6028 0005927 191.8620 168.2241 15.75783311 17917
SILVERSAT               
1 66909U 98067XV  26086.08110740  .00319643  00000+0  15698-2 0  9999
2 66909  51.6220 335.2430 0006734 198.1524 161.9239 15.80729588 17932
ISS OBJECT XW           
1 66910U 98067XW  26086.06742865  .00194306  00000+0  12968-2 0  9992
2 66910  51.6237 336.6606 0006161 190.5298 169.5573 15.74199990 17914
ISS OBJECT XX           
1 66911U 98067XX  26086.09273925  .00470858  00000+0  16974-2 0  9992
2 66911  51.6197 333.7874 0008390 202.2117 157.8525 15.86861499 17945
ISS OBJECT XY           
1 66912U 98067XY  26086.07333693  .00112875  00000+0  10222-2 0  9992
2 66912  51.6273 338.9792 0004189 189.6514 170.4402 15.67194641 17872
KNACKSAT-2              
1 67683U 98067XZ  26085.97818081  .00042420  00000+0  66435-3 0  9991
2 67683  51.6326 345.8555 0009919 248.4821 111.5112 15.53246131  7478
